{
  "type": "FeatureCollection",
  "features": [
    {
      "type": "Feature",
      "properties": {
        "norad_id": 41026,
        "name": "YAOGAN-28",
        "group": "resource",
        "lat": 17.76238994393341,
        "lon": 134.78430791807878,
        "alt_km": 489.1978202040809,
        "timestamp": "2025-12-25T16:53:14.311173+00:00",
        "meta_object_name": "YAOGAN-28",
        "meta_object_id": "2015-064A",
        "meta_epoch": "2025-12-25T07:21:27.191808",
        "meta_mean_motion": 15.24549677,
        "meta_eccentricity": 0.00126632,
        "meta_inclination": 97.2816,
        "meta_ra_of_asc_node": 136.7459,
        "meta_arg_of_pericenter": 86.2073,
        "meta_mean_anomaly": 274.0613,
        "meta_ephemeris_type": 0,
        "meta_classification_type": "U",
        "meta_norad_cat_id": 41026,
        "meta_element_set_no": 999,
        "meta_rev_at_epoch": 56416,
        "meta_bstar": 0.00034401347,
        "meta_mean_motion_dot": 8.421e-05,
        "meta_mean_motion_ddot": 0,
        "tle_line1": "1 41026U 15064A   25359.30656472  .00008421  00000+0  34401-3 0  9995",
        "tle_line2": "2 41026  97.2816 136.7459 0012663  86.2073 274.0613 15.24549677564162"
      },
      "geometry": {
        "type": "Point",
        "coordinates": [
          134.78430791807878,
          17.76238994393341
        ]
      }
    },
    {
      "type": "Feature",
      "properties": {
        "norad_id": 41038,
        "name": "YAOGAN-29",
        "group": "resource",
        "lat": -21.521011072985495,
        "lon": 26.103287830628638,
        "alt_km": 626.1654368818663,
        "timestamp": "2025-12-25T16:53:14.311183+00:00",
        "meta_object_name": "YAOGAN-29",
        "meta_object_id": "2015-069A",
        "meta_epoch": "2025-12-25T07:16:06.722976",
        "meta_mean_motion": 14.82897743,
        "meta_eccentricity": 9.045e-05,
        "meta_inclination": 98.0205,
        "meta_ra_of_asc_node": 22.5139,
        "meta_arg_of_pericenter": 162.4101,
        "meta_mean_anomaly": 197.7144,
        "meta_ephemeris_type": 0,
        "meta_classification_type": "U",
        "meta_norad_cat_id": 41038,
        "meta_element_set_no": 999,
        "meta_rev_at_epoch": 54485,
        "meta_bstar": 0.0001504607,
        "meta_mean_motion_dot": 1.165e-05,
        "meta_mean_motion_ddot": 0,
        "tle_line1": "1 41038U 15069A   25359.30285559  .00001165  00000+0  15046-3 0  9999",
        "tle_line2": "2 41038  98.0205  22.5139 0000904 162.4101 197.7144 14.82897743544854"
      },
      "geometry": {
        "type": "Point",
        "coordinates": [
          26.103287830628638,
          -21.521011072985495
        ]
      }
    },
    {
      "type": "Feature",
      "properties": {
        "norad_id": 41167,
        "name": "KENT RIDGE 1",
        "group": "resource",
        "lat": 14.878898233178452,
        "lon": -148.61672845046613,
        "alt_km": 500.3812716643524,
        "timestamp": "2025-12-25T16:53:14.311193+00:00",
        "meta_object_name": "KENT RIDGE 1",
        "meta_object_id": "2015-077B",
        "meta_epoch": "2025-12-24T23:09:45.505728",
        "meta_mean_motion": 15.21725755,
        "meta_eccentricity": 0.0008548,
        "meta_inclination": 14.9791,
        "meta_ra_of_asc_node": 120.4179,
        "meta_arg_of_pericenter": 303.3992,
        "meta_mean_anomaly": 56.5512,
        "meta_ephemeris_type": 0,
        "meta_classification_type": "U",
        "meta_norad_cat_id": 41167,
        "meta_element_set_no": 999,
        "meta_rev_at_epoch": 55450,
        "meta_bstar": 0.00017266,
        "meta_mean_motion_dot": 4.787e-05,
        "meta_mean_motion_ddot": 0,
        "tle_line1": "1 41167U 15077B   25358.96511002  .00004787  00000+0  17266-3 0  9996",
        "tle_line2": "2 41167  14.9791 120.4179 0008548 303.3992  56.5512 15.21725755554503"
      },
      "geometry": {
        "type": "Point",
        "coordinates": [
          -148.61672845046613,
          14.878898233178452
        ]
      }
    },
    {
      "type": "Feature",
      "properties": {
        "norad_id": 41194,
        "name": "GAOFEN-4",
        "group": "resource",
        "lat": 0.05963491772624417,
        "lon": 93.43958582602758,
        "alt_km": 35784.9224185127,
        "timestamp": "2025-12-25T16:53:14.311206+00:00",
        "meta_object_name": "GAOFEN-4",
        "meta_object_id": "2015-083A",
        "meta_epoch": "2025-12-24T23:52:24.163968",
        "meta_mean_motion": 1.00270172,
        "meta_eccentricity": 0.00028289,
        "meta_inclination": 0.1999,
        "meta_ra_of_asc_node": 81.8667,
        "meta_arg_of_pericenter": 93.4029,
        "meta_mean_anomaly": 22.3054,
        "meta_ephemeris_type": 0,
        "meta_classification_type": "U",
        "meta_norad_cat_id": 41194,
        "meta_element_set_no": 999,
        "meta_rev_at_epoch": 3678,
        "meta_bstar": 0,
        "meta_mean_motion_dot": -3.14e-06,
        "meta_mean_motion_ddot": 0,
        "tle_line1": "1 41194U 15083A   25358.99472412 -.00000314  00000+0  00000+0 0  9994",
        "tle_line2": "2 41194   0.1999  81.8667 0002828  93.4029  22.3054  1.00270172 36782"
      },
      "geometry": {
        "type": "Point",
        "coordinates": [
          93.43958582602758,
          0.05963491772624417
        ]
      }
    },
    {
      "type": "Feature",
      "properties": {
        "norad_id": 41240,
        "name": "JASON-3",
        "group": "resource",
        "lat": -64.44734327295679,
        "lon": 62.13646926754552,
        "alt_km": 1311.7342349072442,
        "timestamp": "2025-12-25T16:53:14.311217+00:00",
        "meta_object_name": "JASON-3",
        "meta_object_id": "2016-002A",
        "meta_epoch": "2025-12-25T06:07:18.060096",
        "meta_mean_motion": 12.87627058,
        "meta_eccentricity": 0.00073001,
        "meta_inclination": 66.0405,
        "meta_ra_of_asc_node": 131.512,
        "meta_arg_of_pericenter": 271.5406,
        "meta_mean_anomaly": 88.4776,
        "meta_ephemeris_type": 0,
        "meta_classification_type": "U",
        "meta_norad_cat_id": 41240,
        "meta_element_set_no": 999,
        "meta_rev_at_epoch": 46485,
        "meta_bstar": 0.00011870413,
        "meta_mean_motion_dot": -3.2e-07,
        "meta_mean_motion_ddot": 0,
        "tle_line1": "1 41240U 16002A   25359.25507014 -.00000032  00000+0  11870-3 0  9993",
        "tle_line2": "2 41240  66.0405 131.5120 0007300 271.5406  88.4776 12.87627058464855"
      },
      "geometry": {
        "type": "Point",
        "coordinates": [
          62.13646926754552,
          -64.44734327295679
        ]
      }
    },
    {
      "type": "Feature",
      "properties": {
        "norad_id": 41335,
        "name": "SENTINEL-3A",
        "group": "resource",
        "lat": -57.977129457592945,
        "lon": 78.58801291143158,
        "alt_km": 810.3090669549374,
        "timestamp": "2025-12-25T16:53:14.311228+00:00",
        "meta_object_name": "SENTINEL-3A",
        "meta_object_id": "2016-011A",
        "meta_epoch": "2025-12-25T07:03:53.695872",
        "meta_mean_motion": 14.26735423,
        "meta_eccentricity": 8.832e-05,
        "meta_inclination": 98.6297,
        "meta_ra_of_asc_node": 64.1317,
        "meta_arg_of_pericenter": 97.2364,
        "meta_mean_anomaly": 262.8917,
        "meta_ephemeris_type": 0,
        "meta_classification_type": "U",
        "meta_norad_cat_id": 41335,
        "meta_element_set_no": 999,
        "meta_rev_at_epoch": 51326,
        "meta_bstar": 7.4042691e-05,
        "meta_mean_motion_dot": 1.35e-06,
        "meta_mean_motion_ddot": 0,
        "tle_line1": "1 41335U 16011A   25359.29437148  .00000135  00000+0  74043-4 0  9997",
        "tle_line2": "2 41335  98.6297  64.1317 0000883  97.2364 262.8917 14.26735423513260"
      },
      "geometry": {
        "type": "Point",
        "coordinates": [
          78.58801291143158,
          -57.977129457592945
        ]
      }
    },
    {
      "type": "Feature",
      "properties": {
        "norad_id": 41556,
        "name": "ZIYUAN 3-02 (ZY 3-02)",
        "group": "resource",
        "lat": 42.74636094135648,
        "lon": -99.44513710015656,
        "alt_km": 494.8479701020269,
        "timestamp": "2025-12-25T16:53:14.311240+00:00",
        "meta_object_name": "ZIYUAN 3-02 (ZY 3-02)",
        "meta_object_id": "2016-033A",
        "meta_epoch": "2025-12-25T06:48:55.955808",
        "meta_mean_motion": 15.21231137,
        "meta_eccentricity": 0.00114485,
        "meta_inclination": 97.4024,
        "meta_ra_of_asc_node": 73.2407,
        "meta_arg_of_pericenter": 199.4078,
        "meta_mean_anomaly": 160.6724,
        "meta_ephemeris_type": 0,
        "meta_classification_type": "U",
        "meta_norad_cat_id": 41556,
        "meta_element_set_no": 999,
        "meta_rev_at_epoch": 53154,
        "meta_bstar": 0.00036309939,
        "meta_mean_motion_dot": 8.053e-05,
        "meta_mean_motion_ddot": 0,
        "tle_line1": "1 41556U 16033A   25359.28398097  .00008053  00000+0  36310-3 0  9995",
        "tle_line2": "2 41556  97.4024  73.2407 0011448 199.4078 160.6724 15.21231137531548"
      },
      "geometry": {
        "type": "Point",
        "coordinates": [
          -99.44513710015656,
          42.74636094135648
        ]
      }
    }
  ]
}